SHIJIAN-25 (SJ-25)      
1 62485U 25002A   26168.80679181 -.00000358  00000+0  00000+0 0  9992
2 62485   5.1153  61.1628 0052241 173.4299  89.1640  1.00264537  5365
TJS-14                  
1 62804U 25017A   26169.61333579  .00000110  00000+0  00000+0 0  9996
2 62804   0.7786 295.7573 0000906 286.4177 283.8884  1.00275083  5280
SPAINSAT NG I           
1 62852U 25021A   26169.54418663  .00000145  00000+0  00000+0 0  9992
2 62852   0.0184   1.2360 0000168 289.9037 200.5362  1.00270022  4009
QZS-6 (MICHIBIKI-6)     
1 62876U 25023A   26169.71621448 -.00000239  00000+0  00000+0 0  9991
2 62876   0.0575  72.0420 0001805  20.1153 163.1463  1.00270342  4961
ZHONGXING-10R           
1 63075U 25036A   26169.68285464 -.00000358  00000+0  00000+0 0  9999
2 63075   0.0253 235.0273 0003518 264.4394 123.8170  1.00271178  4973
TJS-15                  
1 63157U 25045A   26168.79121557 -.00000270  00000+0  00000+0 0  9996
2 63157   0.2876  85.4798 0004644 297.2567 262.5358  1.00271170  4761
TIANLIAN 2-04           
1 63361U 25062A   26169.41168899 -.00000140  00000+0  00000+0 0  9998
2 63361   4.3707 274.4237 0031676  10.4228 210.0696  1.00271823  4610
TJS-16                  
1 63397U 25064A   26168.71475683 -.00000111  00000+0  00000+0 0  9991
2 63397   1.1003  81.4533 0003334 290.0433 312.3891  1.00271394  4393
TJS-17                  
1 63524U 25073A   26168.71553683 -.00000075  00000+0  00000+0 0  9999
2 63524   1.0661  82.6888 0002062 297.6727 307.7357  1.00272176  4299
TIANLIAN 2-05           
1 63662U 25084A   26169.73994125  .00000118  00000+0  00000+0 0  9994
2 63662   4.4464 279.8208 0003138 147.8637 126.0106  1.00271351  4396
TJS-19                  
1 63924U 25097A   26168.78218750 -.00000280  00000+0  00000+0 0  9997
2 63924   3.2851 317.4623 0002910 249.7750 121.5337  1.00276123  4151
CHINASAT 3B             
1 64062U 25106A   26169.62197517 -.00000051  00000+0  00000+0 0  9999
2 64062   0.0297 110.9581 0003026  13.9280 173.1884  1.00271660  4073
SXM-10                  
1 64290U 25122A   26169.51541316 -.00000023  00000+0  00000+0 0  9997
2 64290   0.0231  37.1467 0001753 324.7997 334.1828  1.00271009  3691
COSMOS 2589             
1 64467U 25131A   26168.79103211 -.00000296  00000+0  00000+0 0  9992
2 64467   0.0368  81.6800 0000163  32.8632 174.2407  1.00272159  3569
CHINASAT 9C             
1 64470U 25132A   26169.70647962 -.00000253  00000+0  00000+0 0  9998
2 64470   0.0157  64.4026 0002694  20.0395 169.0021  1.00268767  4165
MTG-S1                  
1 64723U 25143A   26168.96740449 -.00000037  00000+0  00000+0 0  9992
2 64723   0.6022 339.1600 0000787  17.8158 254.0253  1.00270537  3423
DROR 1                  
1 64784U 25148A   26169.39504454 -.00000041  00000+0  00000+0 0  9991
2 64784   0.0390  68.2924 0002622 320.2948  16.2547  1.00270809  3302
SHIYAN-29               
1 65486U 25196A   26169.66871259 -.00000285  00000+0  00000+0 0  9994
2 65486  28.8232  18.5168 0012598 177.4218  46.3156  1.00284927  2897
NUSANTARA LIMA (NUSANT*)
1 65588U 25205A   26168.86667954 -.00000363  00000+0  00000+0 0  9991
2 65588   0.0181 103.4558 0000109  70.6404 156.8713  1.00270924  2728
TJS-20                  
1 66142U 25238A   26169.47951277  .00000018  00000+0  00000+0 0  9992
2 66142   5.4660 299.5550 0004591 163.9682  38.2833  1.00275083  2343
CMS-03 (GSAT-7R)        
1 66311U 25249B   26169.62438470 -.00000083  00000+0  00000+0 0  9997
2 66311   0.0141  43.6701 0001600  37.8563 124.0956  1.00271190  2364
VIASAT-3 F2             
1 66454U 25261A   26169.59409571 -.00000240  00000+0  00000+0 0  9990
2 66454   0.0425 171.7553 0000046 324.2522 265.7235  1.00270916  2803
SHIJIAN-28 (SJ-28)      
1 66549U 25277A   26169.63287807 -.00000365  00000+0  00000+0 0  9991
2 66549   4.5336 272.1128 0001238  38.7922 300.5455  1.00276732  2160
TJS-22                  
1 66990U 25290A   26168.87435907 -.00000012  00000+0  00000+0 0  9996
2 66990   1.5271 286.5804 0001932 330.3677  30.4397  1.00273727  2035
TJS-23                  
1 67226U 25306A   26169.59784025  .00000012  00000+0  00000+0 0  9994
2 67226   5.5850 297.4791 0005414 171.6767 188.4971  1.00275797  1902
FENGYUN 4C              
1 67246U 25312A   26169.69134069 -.00000329  00000+0  00000+0 0  9993
2 67246   0.0466 138.8787 0000372  72.0370  77.8882  1.00271547  1790
SHIJIAN-29A (SJ-29A)    
1 67302U 25315A   26169.64518291 -.00000074  00000+0  00000+0 0  9994
2 67302   3.4023  95.0696 0003188  24.5888  92.6665  1.00269922  1637
SHIJIAN-29B (SJ-29B)    
1 67403U 25315C   26169.64455618 -.00000075  00000+0  00000+0 0  9990
2 67403   3.4013  95.0618 0003959  34.6791  82.3985  1.00270301  1705
ELEKTRO-L 5             
1 67756U 26028A   26169.04907099 -.00000103  00000+0  00000+0 0  9994
2 67756   0.2501 311.9136 0001747 179.9993 228.0916  1.00272307  1260
JAM-E JAM 1             
1 67757U 26028B   26169.63425703  .00000150  00000+0  00000+0 0  9998
2 67757   0.2563 302.9159 0001138 294.9877 291.2811  1.00276418  1136
ECHOSTAR 25             
1 68126U 26045A   26169.58794234  .00000000  00000+0  00000+0 0  9994
2 68126   0.0193  12.6365 0001833  74.5333 281.3215  1.00268393  1006
